start=new Date('2022-01-13T00:00:00.000Z').valueOf();
sats=[{"ELEMENT_SET_NO":"999","CLASSIFICATION_TYPE":"U","RCS_SIZE":"LARGE","APOAPSIS":"548.646","GP_ID":"193733192","ECCENTRICITY":"0.00020850","EPHEMERIS_TYPE":"0","OBJECT_TYPE":"PAYLOAD","NORAD_CAT_ID":"47722","OBJECT_NAME":"STARLINK-2068","MEAN_MOTION_DOT":"-0.00000043","INCLINATION":"53.0560","COUNTRY_CODE":"US","RA_OF_ASC_NODE":"167.3078","TIME_SYSTEM":"UTC","SEMIMAJOR_AXIS":"6925.337","TLE_LINE2":"2 47722  53.0560 167.3078 0002085  87.5687 272.5540 15.06403729 49321","TLE_LINE1":"1 47722U 21017A   22012.55572506 -.00000043  00000-0  16004-4 0  9998","DECAY_DATE":null,"ARG_OF_PERICENTER":"87.5687","CENTER_NAME":"EARTH","MEAN_ANOMALY":"272.5540","MEAN_MOTION_DDOT":"0.0000000000000","SITE":"AFETR","MEAN_ELEMENT_THEORY":"SGP4","BSTAR":"0.00001600400000","LAUNCH_DATE":"2021-03-04","MEAN_MOTION":"15.06403729","REF_FRAME":"TEME","PERIOD":"95.592","REV_AT_EPOCH":"4932","PERIAPSIS":"545.758","EPOCH":"2022-01-12T13:20:14.645184","OBJECT_ID":"2021-017A","FILE":"3270709"},{"FILE":"3270709","OBJECT_ID":"2021-017B","EPOCH":"2022-01-12T12:29:10.612608","PERIAPSIS":"546.265","REV_AT_EPOCH":"5019","REF_FRAME":"TEME","PERIOD":"95.592","MEAN_MOTION":"15.06399816","LAUNCH_DATE":"2021-03-04","MEAN_ELEMENT_THEORY":"SGP4","BSTAR":"0.00003973200000","SITE":"AFETR","MEAN_MOTION_DDOT":"0.0000000000000","MEAN_ANOMALY":"248.8266","CENTER_NAME":"EARTH","ARG_OF_PERICENTER":"111.2870","TLE_LINE1":"1 47723U 21017B   22012.52026172  .00000310  00000-0  39732-4 0  9998","DECAY_DATE":null,"TLE_LINE2":"2 47723  53.0575 102.4459 0001371 111.2870 248.8266 15.06399816 50196","SEMIMAJOR_AXIS":"6925.349","TIME_SYSTEM":"UTC","RA_OF_ASC_NODE":"102.4459","COUNTRY_CODE":"US","EPHEMERIS_TYPE":"0","OBJECT_TYPE":"PAYLOAD","OBJECT_NAME":"STARLINK-2107","NORAD_CAT_ID":"47723","MEAN_MOTION_DOT":"0.00000310","INCLINATION":"53.0575","APOAPSIS":"548.164","ECCENTRICITY":"0.00013710","GP_ID":"193733444","RCS_SIZE":"LARGE","CLASSIFICATION_TYPE":"U","ELEMENT_SET_NO":"999"},{"TLE_LINE2":"2 47724  53.0571 102.2837 0001404  84.6595 275.4555 15.06394862 50165","SEMIMAJOR_AXIS":"6925.364","TIME_SYSTEM":"UTC","ARG_OF_PERICENTER":"84.6595","CENTER_NAME":"EARTH","TLE_LINE1":"1 47724U 21017C   22012.55712655 -.00000819  00000-0 -36105-4 0  9997","DECAY_DATE":null,"CLASSIFICATION_TYPE":"U","RCS_SIZE":"LARGE","ELEMENT_SET_NO":"999","COUNTRY_CODE":"US","RA_OF_ASC_NODE":"102.2837","APOAPSIS":"548.202","ECCENTRICITY":"0.00014040","GP_ID":"193734695","OBJECT_TYPE":"PAYLOAD","EPHEMERIS_TYPE":"0","OBJECT_NAME":"STARLINK-2116","NORAD_CAT_ID":"47724","INCLINATION":"53.0571","MEAN_MOTION_DOT":"-0.00000819","REV_AT_EPOCH":"5016","MEAN_MOTION":"15.06394862","REF_FRAME":"TEME","PERIOD":"95.592","OBJECT_ID":"2021-017C","FILE":"3270709","PERIAPSIS":"546.257","EPOCH":"2022-01-12T13:22:15.733920","MEAN_MOTION_DDOT":"0.0000000000000","MEAN_ANOMALY":"275.4555","LAUNCH_DATE":"2021-03-04","SITE":"AFETR","MEAN_ELEMENT_THEORY":"SGP4","BSTAR":"-0.00003610500000"},{"GP_ID":"193734446","ECCENTRICITY":"0.00022330","APOAPSIS":"548.758","INCLINATION":"53.0556","MEAN_MOTION_DOT":"-0.00000297","OBJECT_NAME":"STARLINK-2125","OBJECT_TYPE":"PAYLOAD","EPHEMERIS_TYPE":"0","NORAD_CAT_ID":"47725","COUNTRY_CODE":"US","RA_OF_ASC_NODE":"172.1451","ELEMENT_SET_NO":"999","CLASSIFICATION_TYPE":"U","RCS_SIZE":"LARGE","DECAY_DATE":null,"TLE_LINE1":"1 47725U 21017D   22012.59122713 -.00000297  00000-0 -10423-5 0  9998","ARG_OF_PERICENTER":"80.9780","CENTER_NAME":"EARTH","SEMIMAJOR_AXIS":"6925.346","TIME_SYSTEM":"UTC","TLE_LINE2":"2 47725  53.0556 172.1451 0002233  80.9780 279.1461 15.06400786 49206","SITE":"AFETR","BSTAR":"-0.00000104230000","MEAN_ELEMENT_THEORY":"SGP4","LAUNCH_DATE":"2021-03-04","MEAN_ANOMALY":"279.1461","MEAN_MOTION_DDOT":"0.0000000000000","PERIAPSIS":"545.665","EPOCH":"2022-01-12T14:11:22.024032","OBJECT_ID":"2021-017D","FILE":"3270709","MEAN_MOTION":"15.06400786","PERIOD":"95.592","REF_FRAME":"TEME","REV_AT_EPOCH":"4920"},{"ARG_OF_PERICENTER":"87.7336","CENTER_NAME":"EARTH","DECAY_DATE":null,"TLE_LINE1":"1 47726U 21017E   22012.57648659  .00001108  00000-0  93280-4 0  9990","TLE_LINE2":"2 47726  53.0555 172.2051 0002164  87.7336 272.3900 15.06407096 49190","SEMIMAJOR_AXIS":"6925.327","TIME_SYSTEM":"UTC","COUNTRY_CODE":"US","RA_OF_ASC_NODE":"172.2051","APOAPSIS":"548.690","GP_ID":"193733692","ECCENTRICITY":"0.00021640","OBJECT_TYPE":"PAYLOAD","OBJECT_NAME":"STARLINK-2126","NORAD_CAT_ID":"47726","EPHEMERIS_TYPE":"0","MEAN_MOTION_DOT":"0.00001108","INCLINATION":"53.0555","CLASSIFICATION_TYPE":"U","RCS_SIZE":"MEDIUM","ELEMENT_SET_NO":"999","OBJECT_ID":"2021-017E","FILE":"3270709","PERIAPSIS":"545.693","EPOCH":"2022-01-12T13:50:08.441376","REV_AT_EPOCH":"4919","MEAN_MOTION":"15.06407096","REF_FRAME":"TEME","PERIOD":"95.592","LAUNCH_DATE":"2021-03-04","SITE":"AFETR","MEAN_ELEMENT_THEORY":"SGP4","BSTAR":"0.00009328000000","MEAN_MOTION_DDOT":"0.0000000000000","MEAN_ANOMALY":"272.3900"},{"MEAN_MOTION_DDOT":"0.0000000000000","MEAN_ANOMALY":"292.2524","LAUNCH_DATE":"2021-03-04","SITE":"AFETR","BSTAR":"-0.00005094700000","MEAN_ELEMENT_THEORY":"SGP4","REV_AT_EPOCH":"5034","MEAN_MOTION":"15.06390193","PERIOD":"95.593","REF_FRAME":"TEME","OBJECT_ID":"2021-017F","FILE":"3270709","PERIAPSIS":"546.228","EPOCH":"2022-01-12T12:39:46.934784","CLASSIFICATION_TYPE":"U","RCS_SIZE":"LARGE","ELEMENT_SET_NO":"999","COUNTRY_CODE":"US","RA_OF_ASC_NODE":"92.4141","ECCENTRICITY":"0.00014660","GP_ID":"193733944","APOAPSIS":"548.259","MEAN_MOTION_DOT":"-0.00001040","INCLINATION":"53.0569","OBJECT_TYPE":"PAYLOAD","OBJECT_NAME":"STARLINK-2129","EPHEMERIS_TYPE":"0","NORAD_CAT_ID":"47727","TLE_LINE2":"2 47727  53.0569  92.4141 0001466  67.8620 292.2524 15.06390193 50349","TIME_SYSTEM":"UTC","SEMIMAJOR_AXIS":"6925.379","ARG_OF_PERICENTER":"67.8620","CENTER_NAME":"EARTH","TLE_LINE1":"1 47727U 21017F   22012.52762656 -.00001040  00000-0 -50947-4 0  9990","DECAY_DATE":null},{"CLASSIFICATION_TYPE":"U","RCS_SIZE":"MEDIUM","ELEMENT_SET_NO":"999","COUNTRY_CODE":"US","RA_OF_ASC_NODE":"172.9233","GP_ID":"193734196","ECCENTRICITY":"0.00019470","APOAPSIS":"548.571","INCLINATION":"53.0542","MEAN_MOTION_DOT":"-0.00000570","NORAD_CAT_ID":"47728","OBJECT_TYPE":"PAYLOAD","OBJECT_NAME":"STARLINK-2131","EPHEMERIS_TYPE":"0","TLE_LINE2":"2 47728  53.0542 172.9233 0001947  81.1948 278.9262 15.06397184 49236","SEMIMAJOR_AXIS":"6925.357","TIME_SYSTEM":"UTC","ARG_OF_PERICENTER":"81.1948","CENTER_NAME":"EARTH","TLE_LINE1":"1 47728U 21017G   22012.41798791 -.00000570  00000-0 -19369-4 0  9998","DECAY_DATE":null,"MEAN_MOTION_DDOT":"0.0000000000000","MEAN_ANOMALY":"278.9262","LAUNCH_DATE":"2021-03-04","SITE":"AFETR","BSTAR":"-0.00001936900000","MEAN_ELEMENT_THEORY":"SGP4","REV_AT_EPOCH":"4923","MEAN_MOTION":"15.06397184","PERIOD":"95.592","REF_FRAME":"TEME","OBJECT_ID":"2021-017G","FILE":"3270709","PERIAPSIS":"545.874","EPOCH":"2022-01-12T10:01:54.155424"},{"REF_FRAME":"TEME","PERIOD":"95.592","MEAN_MOTION":"15.06397321","REV_AT_EPOCH":"4996","EPOCH":"2022-01-12T13:26:52.574208","PERIAPSIS":"546.065","FILE":"3270709","OBJECT_ID":"2021-017H","MEAN_ANOMALY":"259.7333","MEAN_MOTION_DDOT":"0.0000000000000","MEAN_ELEMENT_THEORY":"SGP4","BSTAR":"-0.00006020200000","SITE":"AFETR","LAUNCH_DATE":"2021-03-04","TIME_SYSTEM":"UTC","SEMIMAJOR_AXIS":"6925.357","TLE_LINE2":"2 47729  53.0552 117.2665 0001670 100.3844 259.7333 15.06397321 49960","DECAY_DATE":null,"TLE_LINE1":"1 47729U 21017H   22012.56033072 -.00001178  00000-0 -60202-4 0  9996","CENTER_NAME":"EARTH","ARG_OF_PERICENTER":"100.3844","ELEMENT_SET_NO":"999","RCS_SIZE":"LARGE","CLASSIFICATION_TYPE":"U","EPHEMERIS_TYPE":"0","OBJECT_TYPE":"PAYLOAD","OBJECT_NAME":"STARLINK-2132","NORAD_CAT_ID":"47729","MEAN_MOTION_DOT":"-0.00001178","INCLINATION":"53.0552","APOAPSIS":"548.378","ECCENTRICITY":"0.00016700","GP_ID":"193734946","RA_OF_ASC_NODE":"117.2665","COUNTRY_CODE":"US"},{"SEMIMAJOR_AXIS":"6925.371","TIME_SYSTEM":"UTC","TLE_LINE2":"2 47730  53.0537 187.5280 0002329  74.8794 285.2453 15.06392588 48987","DECAY_DATE":null,"TLE_LINE1":"1 47730U 21017J   22012.50596905 -.00001085  00000-0 -53936-4 0  9994","ARG_OF_PERICENTER":"74.8794","CENTER_NAME":"EARTH","ELEMENT_SET_NO":"999","CLASSIFICATION_TYPE":"U","RCS_SIZE":"MEDIUM","APOAPSIS":"548.849","ECCENTRICITY":"0.00023290","GP_ID":"193733193","OBJECT_NAME":"STARLINK-2140","OBJECT_TYPE":"PAYLOAD","NORAD_CAT_ID":"47730","EPHEMERIS_TYPE":"0","MEAN_MOTION_DOT":"-0.00001085","INCLINATION":"53.0537","COUNTRY_CODE":"US","RA_OF_ASC_NODE":"187.5280","MEAN_MOTION":"15.06392588","REF_FRAME":"TEME","PERIOD":"95.593","REV_AT_EPOCH":"4898","PERIAPSIS":"545.623","EPOCH":"2022-01-12T12:08:35.725920","OBJECT_ID":"2021-017J","FILE":"3270709","MEAN_ANOMALY":"285.2453","MEAN_MOTION_DDOT":"0.0000000000000","SITE":"AFETR","MEAN_ELEMENT_THEORY":"SGP4","BSTAR":"-0.00005393600000","LAUNCH_DATE":"2021-03-04"},{"MEAN_MOTION":"15.06385781","PERIOD":"95.593","REF_FRAME":"TEME","REV_AT_EPOCH":"4902","PERIAPSIS":"545.648","EPOCH":"2022-01-12T05:56:25.850688","OBJECT_ID":"2021-017K","FILE":"3270709","MEAN_ANOMALY":"284.5380","MEAN_MOTION_DDOT":"0.0000000000000","SITE":"AFETR","BSTAR":"0.00007036400000","MEAN_ELEMENT_THEORY":"SGP4","LAUNCH_DATE":"2021-03-04","SEMIMAJOR_AXIS":"6925.392","TIME_SYSTEM":"UTC","TLE_LINE2":"2 47731  53.0550 183.6885 0002323  75.5867 284.5380 15.06385781 49028","DECAY_DATE":null,"TLE_LINE1":"1 47731U 21017K   22012.24752142  .00000766  00000-0  70364-4 0  9990","ARG_OF_PERICENTER":"75.5867","CENTER_NAME":"EARTH","ELEMENT_SET_NO":"999","CLASSIFICATION_TYPE":"U","RCS_SIZE":"LARGE","ECCENTRICITY":"0.00023230","GP_ID":"193733445","APOAPSIS":"548.866","INCLINATION":"53.0550","MEAN_MOTION_DOT":"0.00000766","OBJECT_NAME":"STARLINK-2141","OBJECT_TYPE":"PAYLOAD","EPHEMERIS_TYPE":"0","NORAD_CAT_ID":"47731","COUNTRY_CODE":"US","RA_OF_ASC_NODE":"183.6885"}];
